ONEWEB-0199             
1 48234U 21031AA  24135.57171398 -.00000189  00000+0 -54551-3 0  9996
2 48234  87.8950  81.6287 0002126  79.2678 280.8691 13.14504346147942
ONEWEB-0203             
1 48235U 21031AB  24135.56219611 -.00000098  00000+0 -29969-3 0  9991
2 48235  87.8951  81.6318 0002118  95.9955 264.1416 13.14504907147957
ONEWEB-0197             
1 48236U 21031AC  24135.38538343  .00000271  00000+0  69565-3 0  9995
2 48236  87.8953  81.6754 0001733  73.8353 286.2968 13.14505202147847
ONEWEB-0194             
1 48237U 21031AD  24135.36396592  .00000172  00000+0  43036-3 0  9997
2 48237  87.8950  81.6723 0001924  91.1157 269.0194 13.14505644148018
ONEWEB-0193             
1 48238U 21031AE  24135.37984094  .00000319  00000+0  82524-3 0  9997
2 48238  87.8953  81.6775 0002164  84.9672 275.1705 13.14503749147961
ONEWEB-0191             
1 48239U 21031AF  24135.54317076  .00000149  00000+0  36808-3 0  9992
2 48239  87.8949  81.6296 0002107  83.8103 276.3267 13.14505427147847
ONEWEB-0195             
1 48240U 21031AG  24135.36794559  .00000255  00000+0  65439-3 0  9999
2 48240  87.8947  81.6637 0002504  81.2394 278.9020 13.14504713147809
ONEWEB-0201             
1 48241U 21031AH  24135.35684192 -.00000001  00000+0 -37067-4 0  9998
2 48241  87.8950  81.6993 0002188  80.6527 279.4850 13.14502362148039
